CCSDS_OMM_VERS = 2.0
CREATION_DATE  = 
ORIGINATOR     = 

OBJECT_NAME    = STARLINK-36821
OBJECT_ID      = 2026-035B
CENTER_NAME    = EARTH
REF_FRAME      = TEME
TIME_SYSTEM    = UTC
MEAN_ELEMENT_THEORY = SGP/SGP4

EPOCH          = 2026-03-15T14:00:01.999872
MEAN_MOTION    = 15.75166272
ECCENTRICITY   = .00012176
INCLINATION    = 97.2864
RA_OF_ASC_NODE = 7.2591
ARG_OF_PERICENTER = 95.2464
MEAN_ANOMALY   = 149.3983

EPHEMERIS_TYPE = 0
CLASSIFICATION_TYPE = U
NORAD_CAT_ID   = 67880
ELEMENT_SET_NO = 999
REV_AT_EPOCH   = 470
BSTAR          = .11050771E-3
MEAN_MOTION_DOT = .16368E-3
MEAN_MOTION_DDOT = 0

CCSDS_OMM_VERS = 2.0
CREATION_DATE  = 
ORIGINATOR     = 

OBJECT_NAME    = STARLINK-36808
OBJECT_ID      = 2026-035C
CENTER_NAME    = EARTH
REF_FRAME      = TEME
TIME_SYSTEM    = UTC
MEAN_ELEMENT_THEORY = SGP/SGP4

EPOCH          = 2026-03-15T14:00:01.999872
MEAN_MOTION    = 15.80860864
ECCENTRICITY   = .00013537
INCLINATION    = 97.2873
RA_OF_ASC_NODE = 7.2613
ARG_OF_PERICENTER = 80.1476
MEAN_ANOMALY   = 179.3174

EPHEMERIS_TYPE = 0
CLASSIFICATION_TYPE = U
NORAD_CAT_ID   = 67881
ELEMENT_SET_NO = 999
REV_AT_EPOCH   = 470
BSTAR          = .6672757E-5
MEAN_MOTION_DOT = .1139E-4
MEAN_MOTION_DDOT = 0

CCSDS_OMM_VERS = 2.0
CREATION_DATE  = 
ORIGINATOR     = 

OBJECT_NAME    = STARLINK-36817
OBJECT_ID      = 2026-035D
CENTER_NAME    = EARTH
REF_FRAME      = TEME
TIME_SYSTEM    = UTC
MEAN_ELEMENT_THEORY = SGP/SGP4

EPOCH          = 2026-03-15T14:00:01.999872
MEAN_MOTION    = 15.80839839
ECCENTRICITY   = .00012429
INCLINATION    = 97.2877
RA_OF_ASC_NODE = 7.2650
ARG_OF_PERICENTER = 130.1969
MEAN_ANOMALY   = 142.1174

EPHEMERIS_TYPE = 0
CLASSIFICATION_TYPE = U
NORAD_CAT_ID   = 67882
ELEMENT_SET_NO = 999
REV_AT_EPOCH   = 470
BSTAR          = -.49199171E-4
MEAN_MOTION_DOT = -.9566E-4
MEAN_MOTION_DDOT = 0

CCSDS_OMM_VERS = 2.0
CREATION_DATE  = 
ORIGINATOR     = 

OBJECT_NAME    = STARLINK-36856
OBJECT_ID      = 2026-035E
CENTER_NAME    = EARTH
REF_FRAME      = TEME
TIME_SYSTEM    = UTC
MEAN_ELEMENT_THEORY = SGP/SGP4

EPOCH          = 2026-03-15T14:00:01.999872
MEAN_MOTION    = 15.80831297
ECCENTRICITY   = .00009673
INCLINATION    = 97.2878
RA_OF_ASC_NODE = 7.2641
ARG_OF_PERICENTER = 102.8956
MEAN_ANOMALY   = 165.1566

EPHEMERIS_TYPE = 0
CLASSIFICATION_TYPE = U
NORAD_CAT_ID   = 67883
ELEMENT_SET_NO = 999
REV_AT_EPOCH   = 470
BSTAR          = -.22232457E-4
MEAN_MOTION_DOT = -.4401E-4
MEAN_MOTION_DDOT = 0

CCSDS_OMM_VERS = 2.0
CREATION_DATE  = 
ORIGINATOR     = 

OBJECT_NAME    = STARLINK-36842
OBJECT_ID      = 2026-035F
CENTER_NAME    = EARTH
REF_FRAME      = TEME
TIME_SYSTEM    = UTC
MEAN_ELEMENT_THEORY = SGP/SGP4

EPOCH          = 2026-03-15T14:00:01.999872
MEAN_MOTION    = 15.75172312
ECCENTRICITY   = .00016431
INCLINATION    = 97.2862
RA_OF_ASC_NODE = 7.2637
ARG_OF_PERICENTER = 88.5740
MEAN_ANOMALY   = 172.0801

EPHEMERIS_TYPE = 0
CLASSIFICATION_TYPE = U
NORAD_CAT_ID   = 67884
ELEMENT_SET_NO = 999
REV_AT_EPOCH   = 470
BSTAR          = -.10186321E-3
MEAN_MOTION_DOT = -.15285E-3
MEAN_MOTION_DDOT = 0

CCSDS_OMM_VERS = 2.0
CREATION_DATE  = 
ORIGINATOR     = 

OBJECT_NAME    = STARLINK-36826
OBJECT_ID      = 2026-035G
CENTER_NAME    = EARTH
REF_FRAME      = TEME
TIME_SYSTEM    = UTC
MEAN_ELEMENT_THEORY = SGP/SGP4

EPOCH          = 2026-03-15T14:00:01.999872
MEAN_MOTION    = 15.80838573
ECCENTRICITY   = .00015472
INCLINATION    = 97.2875
RA_OF_ASC_NODE = 7.2689
ARG_OF_PERICENTER = 44.2827
MEAN_ANOMALY   = 236.5860

EPHEMERIS_TYPE = 0
CLASSIFICATION_TYPE = U
NORAD_CAT_ID   = 67885
ELEMENT_SET_NO = 999
REV_AT_EPOCH   = 470
BSTAR          = -.8803372E-4
MEAN_MOTION_DOT = -.1699E-3
MEAN_MOTION_DDOT = 0

CCSDS_OMM_VERS = 2.0
CREATION_DATE  = 
ORIGINATOR     = 

OBJECT_NAME    = STARLINK-36390
OBJECT_ID      = 2026-035H
CENTER_NAME    = EARTH
REF_FRAME      = TEME
TIME_SYSTEM    = UTC
MEAN_ELEMENT_THEORY = SGP/SGP4

EPOCH          = 2026-03-15T14:00:01.999872
MEAN_MOTION    = 15.75087151
ECCENTRICITY   = .00010027
INCLINATION    = 97.2863
RA_OF_ASC_NODE = 7.2675
ARG_OF_PERICENTER = 119.0235
MEAN_ANOMALY   = 153.6334

EPHEMERIS_TYPE = 0
CLASSIFICATION_TYPE = U
NORAD_CAT_ID   = 67886
ELEMENT_SET_NO = 999
REV_AT_EPOCH   = 475
BSTAR          = .54864358E-3
MEAN_MOTION_DOT = .82127E-3
MEAN_MOTION_DDOT = 0

CCSDS_OMM_VERS = 2.0
CREATION_DATE  = 
ORIGINATOR     = 

OBJECT_NAME    = STARLINK-36368
OBJECT_ID      = 2026-035J
CENTER_NAME    = EARTH
REF_FRAME      = TEME
TIME_SYSTEM    = UTC
MEAN_ELEMENT_THEORY = SGP/SGP4

EPOCH          = 2026-03-15T14:00:01.999872
MEAN_MOTION    = 15.80887131
ECCENTRICITY   = .00015655
INCLINATION    = 97.2875
RA_OF_ASC_NODE = 7.2719
ARG_OF_PERICENTER = 122.3198
MEAN_ANOMALY   = 167.0904

EPHEMERIS_TYPE = 0
CLASSIFICATION_TYPE = U
NORAD_CAT_ID   = 67887
ELEMENT_SET_NO = 999
REV_AT_EPOCH   = 470
BSTAR          = -.61491617E-3
MEAN_MOTION_DOT = -.116751E-2
MEAN_MOTION_DDOT = 0

CCSDS_OMM_VERS = 2.0
CREATION_DATE  = 
ORIGINATOR     = 

OBJECT_NAME    = STARLINK-36801
OBJECT_ID      = 2026-035K
CENTER_NAME    = EARTH
REF_FRAME      = TEME
TIME_SYSTEM    = UTC
MEAN_ELEMENT_THEORY = SGP/SGP4

EPOCH          = 2026-03-15T14:00:01.999872
MEAN_MOTION    = 15.80859744
ECCENTRICITY   = .00013346
INCLINATION    = 97.2876
RA_OF_ASC_NODE = 7.2730
ARG_OF_PERICENTER = 104.7521
MEAN_ANOMALY   = 188.9356

EPHEMERIS_TYPE = 0
CLASSIFICATION_TYPE = U
NORAD_CAT_ID   = 67888
ELEMENT_SET_NO = 999
REV_AT_EPOCH   = 470
BSTAR          = -.36385939E-3
MEAN_MOTION_DOT = -.69426E-3
MEAN_MOTION_DDOT = 0

CCSDS_OMM_VERS = 2.0
CREATION_DATE  = 
ORIGINATOR     = 

OBJECT_NAME    = STARLINK-36372
OBJECT_ID      = 2026-035L
CENTER_NAME    = EARTH
REF_FRAME      = TEME
TIME_SYSTEM    = UTC
MEAN_ELEMENT_THEORY = SGP/SGP4

EPOCH          = 2026-03-15T08:10:05.078784
MEAN_MOTION    = 15.80850475
ECCENTRICITY   = .00013064
INCLINATION    = 97.2838
RA_OF_ASC_NODE = 7.0150
ARG_OF_PERICENTER = 91.1248
MEAN_ANOMALY   = 269.0170

EPHEMERIS_TYPE = 0
CLASSIFICATION_TYPE = U
NORAD_CAT_ID   = 67889
ELEMENT_SET_NO = 999
REV_AT_EPOCH   = 473
BSTAR          = .24423244E-2
MEAN_MOTION_DOT = .496091E-2
MEAN_MOTION_DDOT = 0

CCSDS_OMM_VERS = 2.0
CREATION_DATE  = 
ORIGINATOR     = 

OBJECT_NAME    = STARLINK-36363
OBJECT_ID      = 2026-035M
CENTER_NAME    = EARTH
REF_FRAME      = TEME
TIME_SYSTEM    = UTC
MEAN_ELEMENT_THEORY = SGP/SGP4

EPOCH          = 2026-03-15T14:00:01.999872
MEAN_MOTION    = 15.76850027
ECCENTRICITY   = .00017907
INCLINATION    = 97.2862
RA_OF_ASC_NODE = 7.2749
ARG_OF_PERICENTER = 98.5886
MEAN_ANOMALY   = 192.8265

EPHEMERIS_TYPE = 0
CLASSIFICATION_TYPE = U
NORAD_CAT_ID   = 67890
ELEMENT_SET_NO = 999
REV_AT_EPOCH   = 470
BSTAR          = -.12984224E-1
MEAN_MOTION_DOT = -.1826585E-1
MEAN_MOTION_DDOT = 0

CCSDS_OMM_VERS = 2.0
CREATION_DATE  = 
ORIGINATOR     = 

OBJECT_NAME    = STARLINK-36816
OBJECT_ID      = 2026-035N
CENTER_NAME    = EARTH
REF_FRAME      = TEME
TIME_SYSTEM    = UTC
MEAN_ELEMENT_THEORY = SGP/SGP4

EPOCH          = 2026-03-15T14:00:38.255904
MEAN_MOTION    = 15.80954909
ECCENTRICITY   = .00030473
INCLINATION    = 97.2857
RA_OF_ASC_NODE = 7.2946
ARG_OF_PERICENTER = 66.9114
MEAN_ANOMALY   = 293.2475

EPHEMERIS_TYPE = 0
CLASSIFICATION_TYPE = U
NORAD_CAT_ID   = 67891
ELEMENT_SET_NO = 999
REV_AT_EPOCH   = 477
BSTAR          = .22116605E-2
MEAN_MOTION_DOT = .448876E-2
MEAN_MOTION_DDOT = 0

