STARLINK-36821          
1 67880U 26035B   26074.58335648  .00016368  00000+0  11051-3 0  9990
2 67880  97.2864   7.2591 0001217  95.2464 149.3983 15.75166272  4702
STARLINK-36808          
1 67881U 26035C   26074.58335648  .00001139  00000+0  66728-5 0  9994
2 67881  97.2873   7.2613 0001353  80.1476 179.3174 15.80860864  4704
STARLINK-36817          
1 67882U 26035D   26074.58335648 -.00009566  00000+0 -49199-4 0  9991
2 67882  97.2877   7.2650 0001242 130.1969 142.1174 15.80839839  4706
STARLINK-36856          
1 67883U 26035E   26074.58335648 -.00004401  00000+0 -22232-4 0  9994
2 67883  97.2878   7.2641 0000967 102.8956 165.1566 15.80831297  4703
STARLINK-36842          
1 67884U 26035F   26074.58335648 -.00015285  00000+0 -10186-3 0  9991
2 67884  97.2862   7.2637 0001643  88.5740 172.0801 15.75172312  4704
STARLINK-36826          
1 67885U 26035G   26074.58335648 -.00016990  00000+0 -88034-4 0  9994
2 67885  97.2875   7.2689 0001547  44.2827 236.5860 15.80838573  4709
STARLINK-36390          
1 67886U 26035H   26074.58335648  .00082127  00000+0  54864-3 0  9991
2 67886  97.2863   7.2675 0001002 119.0235 153.6334 15.75087151  4754
STARLINK-36368          
1 67887U 26035J   26074.58335648 -.00116751  00000+0 -61492-3 0  9990
2 67887  97.2875   7.2719 0001565 122.3198 167.0904 15.80887131  4705
STARLINK-36801          
1 67888U 26035K   26074.58335648 -.00069426  00000+0 -36386-3 0  9991
2 67888  97.2876   7.2730 0001334 104.7521 188.9356 15.80859744  4700
STARLINK-36372          
1 67889U 26035L   26074.34033656  .00496091  00000+0  24423-2 0  9998
2 67889  97.2838   7.0150 0001306  91.1248 269.0170 15.80850475  4737
STARLINK-36363          
1 67890U 26035M   26074.58335648 -.01826585  00000+0 -12984-1 0  9998
2 67890  97.2862   7.2749 0001790  98.5886 192.8265 15.76850027  4701
STARLINK-36816          
1 67891U 26035N   26074.58377611  .00448876  00000+0  22117-2 0  9995
2 67891  97.2857   7.2946 0003047  66.9114 293.2475 15.80954909  4770
